SES-15                  
1 42709U 17026A   22258.95495711  .00000052  00000+0  00000+0 0  9993
2 42709   0.0167 348.3010 0000381 217.0067   4.2085  1.00269218 20406
QZS-2 (MICHIBIKI-2)     
1 42738U 17028A   22258.32656722 -.00000167  00000+0  00000+0 0  9997
2 42738  41.6283 262.8987 0751198 270.2499  79.1136  1.00262937 19395
VIASAT-2                
1 42740U 17029A   22257.96240562 -.00000275  00000+0  00000+0 0  9991
2 42740   0.0258 253.6935 0000236 345.9441  30.8258  1.00272014 19438
EUTELSAT 172B           
1 42741U 17029B   22259.46729623 -.00000013  00000+0  00000+0 0  9999
2 42741   0.0387 159.8982 0000176  88.7247  87.0005  1.00271975 19989
GSAT-19                 
1 42747U 17031A   22259.05691606  .00000117  00000+0  00000+0 0  9996
2 42747   0.0424 272.0469 0005198 200.3007 311.0142  1.00273940 19391
ECHOSTAR 21             
1 42749U 17032A   22259.34158701  .00000058  00000+0  00000+0 0  9999
2 42749   3.7963 311.5818 0002535 227.8299 309.0738  1.00271383 19372
BULGARIASAT-1           
1 42801U 17038A   22259.33868784  .00000004  00000+0  00000+0 0  9993
2 42801   0.0036 183.9477 0002775   0.2330 294.9077  1.00272307 19093
HELLAS-SAT 3            
1 42814U 17040A   22259.27548914  .00000144  00000+0  00000+0 0  9998
2 42814   0.0692  25.9727 0001458  99.4538   7.9437  1.00273154 19087
GSAT-17                 
1 42815U 17040B   22259.55711226 -.00000265  00000+0  00000+0 0  9993
2 42815   0.0351  95.2148 0004390 153.2545  41.0833  1.00271006 19052
INTELSAT 35E (IS-35E)   
1 42818U 17041A   22259.47614309 -.00000245  00000+0  00000+0 0  9990
2 42818   0.0151 207.4709 0001737 343.5865 301.2595  1.00272454 19081
COSMOS 2520             
1 42907U 17046A   22258.48756316  .00000128  00000+0  00000+0 0  9998
2 42907   0.0238 129.5972 0001440 110.9168 334.4534  1.00275117 18646
TDRS 13                 
1 42915U 17047A   22259.40899289 -.00000105  00000+0  00000+0 0  9994
2 42915   4.3531 334.3325 0016854 125.8661  30.9230  1.00272767 18610
QZS-3 (MICHIBIKI-3)     
1 42917U 17048A   22259.57342226 -.00000356  00000+0  00000+0 0  9997
2 42917   0.0638 151.2876 0001990  46.1986 131.4318  1.00268461 18520
AMAZONAS 5              
1 42934U 17053A   22257.96414963 -.00000292  00000+0  00000+0 0  9990
2 42934   0.0461 320.8143 0002227 257.9623  61.2082  1.00272858 18329
ASIASAT 9               
1 42942U 17057A   22259.00508090 -.00000368  00000+0  00000+0 0  9999
2 42942   0.0100 166.3181 0002292 356.6460 315.8840  1.00268686 18202
INTELSAT 37E (IS-37E)   
1 42950U 17059A   22259.42202233 -.00000148  00000+0  00000+0 0  9992
2 42950   0.0192 160.2846 0002825  28.4615 300.5328  1.00272336 18334
BSAT-4A                 
1 42951U 17059B   22259.62821302 -.00000357  00000+0  00000+0 0  9991
2 42951   0.0204  41.0882 0000806  80.7351 209.7204  1.00268693 18222
QZS-4 (MICHIBIKI-4)     
1 42965U 17062A   22258.80363927 -.00000354  00000+0  00000+0 0  9990
2 42965  40.7483   0.9616 0748367 269.5003 152.2013  1.00282526 18072
SES-11 (ECHOSTAR 105)   
1 42967U 17063A   22259.57246054 -.00000096  00000+0  00000+0 0  9992
2 42967   0.0446 282.9966 0002949 265.2297 268.3979  1.00272098 17981
KOREASAT 5A             
1 42984U 17067A   22258.88214740 -.00000366  00000+0  00000+0 0  9995
2 42984   0.0198 159.4051 0001917  41.6767 224.4406  1.00267216 17792
ALCOMSAT 1              
1 43039U 17078A   22259.42479939 -.00000193  00000+0  00000+0 0  9991
2 43039   0.0217 197.4309 0002241 338.4384 307.6263  1.00272756 17551
SBIRS GEO-3 (USA 282)   
1 43162U 18009A   22259.51074317 -.00000298  00000+0  00000+0 0  9990
2 43162   3.3754 320.2277 0002295 222.6310 135.4334  1.00271814 17103
AL YAH 3                
1 43174U 18012A   22259.42757944 -.00000163  00000+0  00000+0 0  9992
2 43174   0.1075  96.9622 0002100  96.3444 295.8524  1.00272028 17118
SES-14                  
1 43175U 18012B   22258.08313115 -.00000288  00000+0  00000+0 0  9990
2 43175   0.0357 302.1888 0001289 242.3337 151.9274  1.00270306 17300
GOES 17                 
1 43226U 18022A   22258.09242134  .00000088  00000+0  00000+0 0  9998
2 43226   0.0799 282.7397 0000403 284.8324  42.4259  1.00273423 16678
HISPASAT 30W-6          
1 43228U 18023A   22257.97034087 -.00000226  00000+0  00000+0 0  9998
2 43228   0.0470  40.5470 0002926 109.5617 163.1402  1.00271758 16746
SUPERBIRD-B3            
1 43271U 18033A   22259.51492821 -.00000099  00000+0  00000+0 0  9991
2 43271   0.0334 252.2354 0000985 292.6771 157.9112  1.00272102 16310
HYLAS 4                 
1 43272U 18033B   22259.47631750 -.00000241  00000+0  00000+0 0  9992
2 43272   0.0404 257.1840 0001753 311.7890 284.4034  1.00270555 16344
IRNSS-1I                
1 43286U 18035A   22259.13518381  .00000088  00000+0  00000+0 0  9994
2 43286  29.2702  95.8755 0020124 178.1096 184.8257  1.00276061 16349
USA 283                 
1 43339U 18036A   22255.60124589 -.00000333  00000+0  00000+0 0  9999
2 43339   0.0044 209.1136 0000757  10.4830 122.5248  1.00272145  4964
COSMOS 2526             
1 43432U 18037A   22259.00630170 -.00000352  00000+0  00000+0 0  9991
2 43432   0.0222 127.9593 0000498  76.0167 281.3014  1.00274874 16232
APSTAR 6C               
1 43450U 18041A   22259.58146267 -.00000326  00000+0  00000+0 0  9999
2 43450   0.0251 263.9200 0002395 285.5907 149.2964  1.00269002 16106
BANGABANDHUSAT-1        
1 43463U 18044A   22258.76021529 -.00000371  00000+0  00000+0 0  9998
2 43463   0.0092 174.0293 0002640  20.6055 192.8269  1.00270234 15966
SES-12                  
1 43488U 18049A   22258.56926990 -.00000279  00000+0  00000+0 0  9991
2 43488   0.0289  76.4976 0001912 163.2693  54.6785  1.00272491 15670
FENGYUN 2H              
1 43491U 18050A   22259.54632833 -.00000134  00000+0  00000+0 0  9996
2 43491   1.3736  95.4002 0003860  64.4858 111.1894  1.00275184 15701
BEIDOU IGSO-7           
1 43539U 18057A   22258.90859954 -.00000144  00000+0  00000+0 0  9991
2 43539  55.0903 174.9314 0052454 228.2683  32.8237  1.00283092 15419
TELSTAR 19V             
1 43562U 18059A   22257.96380083 -.00000289  00000+0  00000+0 0  9996
2 43562   0.0146 189.9546 0003526 332.8611 115.0541  1.00272035 15390
TELKOM 4 (MERAH PUTIH)  
1 43587U 18064A   22259.36103271 -.00000352  00000+0  00000+0 0  9998
2 43587   0.0171 207.2711 0001581 351.7299  34.2642  1.00272605 15133
TELSTAR 18V (APSTAR 5C) 
1 43611U 18069A   22257.93205991 -.00000304  00000+0  00000+0 0  9991
2 43611   0.0204 164.9894 0002068  17.9132 284.5087  1.00268585 14883
AZERSPACE 2 (IS-38)     
1 43632U 18074A   22258.53799291  .00000128  00000+0  00000+0 0  9991
2 43632   0.0140 124.8535 0001588  68.0987  40.3036  1.00273398 14704
HORIZONS-3E             
1 43633U 18074B   22258.60121878 -.00000039  00000+0  00000+0 0  9992
2 43633   0.0476 355.6679 0001316 293.9541  90.3348  1.00272883 14578
AEHF-4 (USA 288)        
1 43651U 18079A   22259.52688256 -.00000282  00000+0  00000+0 0  9997
2 43651   2.3924 317.3013 0004097 220.0984 300.1975  1.00275598 14562
BEIDOU-3 G1             
1 43683U 18085A   22259.52202139 -.00000285  00000+0  00000+0 0  9994
2 43683   0.9913 152.0308 0004321  43.3415 128.0709  1.00274252 14327
GSAT-29                 
1 43698U 18089A   22259.36438267  .00000077  00000+0  00000+0 0  9997
2 43698   0.0142 131.4522 0001635  52.7089 357.3327  1.00274670 14050
ES'HAIL 2               
1 43700U 18090A   22259.48808955  .00000137  00000+0  00000+0 0  9998
2 43700   0.0184 145.8093 0002447  70.6806 340.4305  1.00273904 14182
GEO-KOMPSAT-2A          
1 43823U 18100A   22258.58591222 -.00000353  00000+0  00000+0 0  9993
2 43823   0.0432 356.7863 0001297 149.3419 187.5743  1.00269887 13874
GSAT-11                 
1 43824U 18100B   22259.54632833 -.00000085  00000+0  00000+0 0  9997
2 43824   0.0708 271.9367 0006240 214.1145 140.1137  1.00272760 13751
GSAT-7A                 
1 43864U 18105A   22259.55188282  .00000018  00000+0  00000+0 0  9996
2 43864   0.0621 270.9713 0001219 278.4386  67.5130  1.00274496 13724
COSMOS 2533             
1 43867U 18107A   22258.64952433 -.00000047  00000+0  00000+0 0  9990
2 43867   0.0192 115.8619 0000417 124.4811  58.0554  1.00270770 13674
TJS-3                   
1 43874U 18110A   22259.69007887 -.00000220  00000+0  00000+0 0  9995
2 43874   0.0823 110.7473 0001494 178.0548  43.4730  1.00270723 13743
CHINASAT 2D (ZX 2D)     
1 43920U 19001A   22259.57412929 -.00000345  00000+0  00000+0 0  9999
2 43920   0.0413  10.1688 0000732 315.7578   6.2655  1.00269188 40339
HELLAS-SAT 4 & SGS-1    
1 44034U 19007A   22259.05743687  .00000144  00000+0  00000+0 0  9999
2 44034   0.0631 127.9421 0006114  36.3214 250.3993  1.00271467 13614
GSAT-31                 
1 44035U 19007B   22258.70083958  .00000117  00000+0  00000+0 0  9999
2 44035   0.0187 188.4708 0003477  32.0374  74.3230  1.00273476 13227
NUSANTARA SATU          
1 44048U 19009A   22258.42152209 -.00000244  00000+0  00000+0 0  9992
2 44048   0.0167 155.2886 0001928  27.3031 109.5071  1.00268396 13021
CHINASAT 6C (ZX 6C)     
1 44067U 19012A   22259.01299150 -.00000345  00000+0  00000+0 0  9992
2 44067   0.0511 269.8873 0003921 344.6334 235.0874  1.00268821 12993
WGS 10 (USA 291)        
1 44071U 19014A   22259.55188282  .00000039  00000+0  00000+0 0  9990
2 44071   0.0195 148.9849 0000371  88.0187  17.4404  1.00273460 12892
TIANLIAN 2-01           
1 44076U 19017A   22259.63690755 -.00000143  00000+0  00000+0 0  9997
2 44076   0.1954 276.0883 0035138 238.4698 150.2525  1.00269699 12876
ARABSAT-6A              
1 44186U 19021A   22258.13573587  .00000144  00000+0  00000+0 0  9991
2 44186   0.0497 333.7714 0006412 258.3468 201.3134  1.00262070 12401
BEIDOU-3 IGSO-1         
1 44204U 19023A   22259.32549223 -.00000201  00000+0  00000+0 0  9991
2 44204  56.6932  51.9963 0023433 188.3749 351.5962  1.00282302 12625
